[{"OBJECT_NAME":"SL-14 R/B","OBJECT_ID":"1986-006B","EPOCH":"2026-03-25T09:40:21.296928","MEAN_MOTION":14.86838,"ECCENTRICITY":0.00755522,"INCLINATION":82.5245,"RA_OF_ASC_NODE":244.9443,"ARG_OF_PERICENTER":219.7679,"MEAN_ANOMALY":139.7986,"EPHEMERIS_TYPE":0,"CLASSIFICATION_TYPE":"U","NORAD_CAT_ID":16496,"ELEMENT_SET_NO":999,"REV_AT_EPOCH":15154,"BSTAR":8.7224118e-5,"MEAN_MOTION_DOT":8.45e-6,"MEAN_MOTION_DDOT":0},{"OBJECT_NAME":"COSMOS 1743","OBJECT_ID":"1986-034A","EPOCH":"2026-03-25T08:47:10.150944","MEAN_MOTION":15.59802629,"ECCENTRICITY":0.00035784,"INCLINATION":82.5306,"RA_OF_ASC_NODE":57.3612,"ARG_OF_PERICENTER":182.1706,"MEAN_ANOMALY":177.9536,"EPHEMERIS_TYPE":0,"CLASSIFICATION_TYPE":"U","NORAD_CAT_ID":16719,"ELEMENT_SET_NO":999,"REV_AT_EPOCH":18269,"BSTAR":0.00050875442,"MEAN_MOTION_DOT":0.0004095,"MEAN_MOTION_DDOT":0},{"OBJECT_NAME":"SL-14 R/B","OBJECT_ID":"1986-046B","EPOCH":"2026-03-25T10:24:25.701984","MEAN_MOTION":14.85604922,"ECCENTRICITY":0.00232537,"INCLINATION":82.4797,"RA_OF_ASC_NODE":65.3013,"ARG_OF_PERICENTER":172.1101,"MEAN_ANOMALY":188.0486,"EPHEMERIS_TYPE":0,"CLASSIFICATION_TYPE":"U","NORAD_CAT_ID":16792,"ELEMENT_SET_NO":999,"REV_AT_EPOCH":12874,"BSTAR":5.3828632e-5,"MEAN_MOTION_DOT":4.92e-6,"MEAN_MOTION_DDOT":0},{"OBJECT_NAME":"SL-14 R/B","OBJECT_ID":"1986-055B","EPOCH":"2026-03-25T08:26:30.398208","MEAN_MOTION":14.85655898,"ECCENTRICITY":0.00173292,"INCLINATION":82.5174,"RA_OF_ASC_NODE":111.9498,"ARG_OF_PERICENTER":281.3289,"MEAN_ANOMALY":89.0218,"EPHEMERIS_TYPE":0,"CLASSIFICATION_TYPE":"U","NORAD_CAT_ID":16882,"ELEMENT_SET_NO":999,"REV_AT_EPOCH":12169,"BSTAR":4.718467e-5,"MEAN_MOTION_DOT":4.34e-6,"MEAN_MOTION_DDOT":0},{"OBJECT_NAME":"AJISAI (EGS)","OBJECT_ID":"1986-061A","EPOCH":"2026-03-25T15:22:07.893696","MEAN_MOTION":12.44515626,"ECCENTRICITY":0.00113287,"INCLINATION":50.0105,"RA_OF_ASC_NODE":44.2976,"ARG_OF_PERICENTER":328.1081,"MEAN_ANOMALY":209.2766,"EPHEMERIS_TYPE":0,"CLASSIFICATION_TYPE":"U","NORAD_CAT_ID":16908,"ELEMENT_SET_NO":999,"REV_AT_EPOCH":46998,"BSTAR":-5.3012233e-5,"MEAN_MOTION_DOT":-1.05e-6,"MEAN_MOTION_DDOT":0},{"OBJECT_NAME":"SL-14 R/B","OBJECT_ID":"1987-024B","EPOCH":"2026-03-25T09:27:18.105984","MEAN_MOTION":14.86146407,"ECCENTRICITY":0.00175118,"INCLINATION":82.5249,"RA_OF_ASC_NODE":77.9986,"ARG_OF_PERICENTER":204.2155,"MEAN_ANOMALY":155.824,"EPHEMERIS_TYPE":0,"CLASSIFICATION_TYPE":"U","NORAD_CAT_ID":17567,"ELEMENT_SET_NO":999,"REV_AT_EPOCH":9046,"BSTAR":5.3065155e-5,"MEAN_MOTION_DOT":4.91e-6,"MEAN_MOTION_DDOT":0},{"OBJECT_NAME":"COSMOS 1833","OBJECT_ID":"1987-027A","EPOCH":"2026-03-25T13:48:52.368768","MEAN_MOTION":14.13049026,"ECCENTRICITY":0.00234413,"INCLINATION":70.9178,"RA_OF_ASC_NODE":292.6295,"ARG_OF_PERICENTER":191.3118,"MEAN_ANOMALY":168.7479,"EPHEMERIS_TYPE":0,"CLASSIFICATION_TYPE":"U","NORAD_CAT_ID":17589,"ELEMENT_SET_NO":999,"REV_AT_EPOCH":1256,"BSTAR":-0.00012387705,"MEAN_MOTION_DOT":-2.8e-6,"MEAN_MOTION_DDOT":0},{"OBJECT_NAME":"SL-16 R/B","OBJECT_ID":"1987-027B","EPOCH":"2026-03-25T13:46:14.769984","MEAN_MOTION":14.17165896,"ECCENTRICITY":0.00028433,"INCLINATION":71.0011,"RA_OF_ASC_NODE":243.0198,"ARG_OF_PERICENTER":104.4797,"MEAN_ANOMALY":255.6643,"EPHEMERIS_TYPE":0,"CLASSIFICATION_TYPE":"U","NORAD_CAT_ID":17590,"ELEMENT_SET_NO":999,"REV_AT_EPOCH":1759,"BSTAR":-8.4284457e-5,"MEAN_MOTION_DOT":-2.18e-6,"MEAN_MOTION_DDOT":0},{"OBJECT_NAME":"SL-14 R/B","OBJECT_ID":"1987-038B","EPOCH":"2026-03-25T06:17:40.138368","MEAN_MOTION":14.853825,"ECCENTRICITY":0.00206705,"INCLINATION":82.4978,"RA_OF_ASC_NODE":282.134,"ARG_OF_PERICENTER":111.5941,"MEAN_ANOMALY":248.748,"EPHEMERIS_TYPE":0,"CLASSIFICATION_TYPE":"U","NORAD_CAT_ID":17912,"ELEMENT_SET_NO":999,"REV_AT_EPOCH":8154,"BSTAR":4.8013763e-5,"MEAN_MOTION_DOT":4.39e-6,"MEAN_MOTION_DDOT":0},{"OBJECT_NAME":"COSMOS 1844","OBJECT_ID":"1987-041A","EPOCH":"2026-03-25T12:33:22.372704","MEAN_MOTION":14.14554031,"ECCENTRICITY":0.00308376,"INCLINATION":70.9013,"RA_OF_ASC_NODE":0.7797,"ARG_OF_PERICENTER":354.8117,"MEAN_ANOMALY":5.268,"EPHEMERIS_TYPE":0,"CLASSIFICATION_TYPE":"U","NORAD_CAT_ID":17973,"ELEMENT_SET_NO":999,"REV_AT_EPOCH":582,"BSTAR":0.00017903756,"MEAN_MOTION_DOT":2.97e-6,"MEAN_MOTION_DDOT":0},{"OBJECT_NAME":"SL-14 R/B","OBJECT_ID":"1987-055B","EPOCH":"2026-03-25T04:03:24.897888","MEAN_MOTION":14.85644725,"ECCENTRICITY":0.0019779,"INCLINATION":82.5013,"RA_OF_ASC_NODE":334.4454,"ARG_OF_PERICENTER":326.2036,"MEAN_ANOMALY":33.7918,"EPHEMERIS_TYPE":0,"CLASSIFICATION_TYPE":"U","NORAD_CAT_ID":18153,"ELEMENT_SET_NO":999,"REV_AT_EPOCH":7223,"BSTAR":4.9395728e-5,"MEAN_MOTION_DOT":4.53e-6,"MEAN_MOTION_DDOT":0},{"OBJECT_NAME":"COSMOS 1867","OBJECT_ID":"1987-060A","EPOCH":"2026-03-25T12:13:33.372192","MEAN_MOTION":14.3150537,"ECCENTRICITY":0.00147488,"INCLINATION":65.009,"RA_OF_ASC_NODE":262.4001,"ARG_OF_PERICENTER":279.6151,"MEAN_ANOMALY":80.3266,"EPHEMERIS_TYPE":0,"CLASSIFICATION_TYPE":"U","NORAD_CAT_ID":18187,"ELEMENT_SET_NO":999,"REV_AT_EPOCH":2220,"BSTAR":2.6592552e-5,"MEAN_MOTION_DOT":-2.9e-7,"MEAN_MOTION_DDOT":0},{"OBJECT_NAME":"SL-14 R/B","OBJECT_ID":"1988-001B","EPOCH":"2026-03-25T12:03:14.427648","MEAN_MOTION":14.85544892,"ECCENTRICITY":0.00180446,"INCLINATION":82.5163,"RA_OF_ASC_NODE":180.4926,"ARG_OF_PERICENTER":181.3307,"MEAN_ANOMALY":178.7865,"EPHEMERIS_TYPE":0,"CLASSIFICATION_TYPE":"U","NORAD_CAT_ID":18749,"ELEMENT_SET_NO":999,"REV_AT_EPOCH":4437,"BSTAR":5.4041108e-5,"MEAN_MOTION_DOT":4.92e-6,"MEAN_MOTION_DDOT":0},{"OBJECT_NAME":"COSMOS 1933","OBJECT_ID":"1988-020A","EPOCH":"2026-03-25T09:53:27.582720","MEAN_MOTION":15.18128691,"ECCENTRICITY":0.00050723,"INCLINATION":82.512,"RA_OF_ASC_NODE":235.352,"ARG_OF_PERICENTER":134.7278,"MEAN_ANOMALY":225.4369,"EPHEMERIS_TYPE":0,"CLASSIFICATION_TYPE":"U","NORAD_CAT_ID":18958,"ELEMENT_SET_NO":999,"REV_AT_EPOCH":5261,"BSTAR":0.00020896514,"MEAN_MOTION_DOT":4.294e-5,"MEAN_MOTION_DDOT":0},{"OBJECT_NAME":"SL-3 R/B","OBJECT_ID":"1988-032B","EPOCH":"2026-03-25T14:21:05.918688","MEAN_MOTION":15.20080524,"ECCENTRICITY":0.00259649,"INCLINATION":97.5214,"RA_OF_ASC_NODE":67.7969,"ARG_OF_PERICENTER":174.406,"MEAN_ANOMALY":185.747,"EPHEMERIS_TYPE":0,"CLASSIFICATION_TYPE":"U","NORAD_CAT_ID":19046,"ELEMENT_SET_NO":999,"REV_AT_EPOCH":5452,"BSTAR":0.0002230813,"MEAN_MOTION_DOT":4.787e-5,"MEAN_MOTION_DDOT":0},{"OBJECT_NAME":"SL-16 R/B","OBJECT_ID":"1988-039B","EPOCH":"2026-03-25T13:15:39.594240","MEAN_MOTION":14.1961806,"ECCENTRICITY":0.00235298,"INCLINATION":71.0161,"RA_OF_ASC_NODE":35.0036,"ARG_OF_PERICENTER":311.5493,"MEAN_ANOMALY":48.3614,"EPHEMERIS_TYPE":0,"CLASSIFICATION_TYPE":"U","NORAD_CAT_ID":19120,"ELEMENT_SET_NO":999,"REV_AT_EPOCH":96063,"BSTAR":5.8882851e-5,"MEAN_MOTION_DOT":7.6e-7,"MEAN_MOTION_DDOT":0},{"OBJECT_NAME":"COSMOS 1953","OBJECT_ID":"1988-050A","EPOCH":"2026-03-25T14:20:36.760416","MEAN_MOTION":15.28771621,"ECCENTRICITY":0.0012514,"INCLINATION":82.508,"RA_OF_ASC_NODE":142.246,"ARG_OF_PERICENTER":72.9317,"MEAN_ANOMALY":287.3293,"EPHEMERIS_TYPE":0,"CLASSIFICATION_TYPE":"U","NORAD_CAT_ID":19210,"ELEMENT_SET_NO":999,"REV_AT_EPOCH":4021,"BSTAR":0.00022523974,"MEAN_MOTION_DOT":6.344e-5,"MEAN_MOTION_DDOT":0}]
