SL-14 R/B               
1 16496U 86006B   26084.40302427  .00000845  00000+0  87224-4 0  9991
2 16496  82.5245 244.9443 0075552 219.7679 139.7986 14.86838000151546
COSMOS 1743             
1 16719U 86034A   26084.36608971  .00040950  00000+0  50875-3 0  9990
2 16719  82.5306  57.3612 0003578 182.1706 177.9536 15.59802629182693
SL-14 R/B               
1 16792U 86046B   26084.43363081  .00000492  00000+0  53829-4 0  9992
2 16792  82.4797  65.3013 0023253 172.1101 188.0486 14.85604922128748
SL-14 R/B               
1 16882U 86055B   26084.35174072  .00000434  00000+0  47185-4 0  9997
2 16882  82.5174 111.9498 0017329 281.3289  89.0218 14.85655898121698
AJISAI (EGS)            
1 16908U 86061A   26084.64036914 -.00000105  00000+0 -53012-4 0  9990
2 16908  50.0105  44.2976 0011328 328.1081 209.2766 12.44515626469981
SL-14 R/B               
1 17567U 87024B   26084.39395956  .00000491  00000+0  53065-4 0  9992
2 17567  82.5249  77.9986 0017511 204.2155 155.8240 14.86146407 90463
COSMOS 1833             
1 17589U 87027A   26084.57560612 -.00000280  00000+0 -12388-3 0  9992
2 17589  70.9178 292.6295 0023441 191.3118 168.7479 14.13049026 12563
SL-16 R/B               
1 17590U 87027B   26084.57378206 -.00000218  00000+0 -84284-4 0  9996
2 17590  71.0011 243.0198 0002843 104.4797 255.6643 14.17165896 17591
SL-14 R/B               
1 17912U 87038B   26084.26227012  .00000439  00000+0  48014-4 0  9994
2 17912  82.4978 282.1340 0020670 111.5941 248.7480 14.85382500 81544
COSMOS 1844             
1 17973U 87041A   26084.52317561  .00000297  00000+0  17904-3 0  9998
2 17973  70.9013   0.7797 0030837 354.8117   5.2680 14.14554031  5823
SL-14 R/B               
1 18153U 87055B   26084.16903817  .00000453  00000+0  49396-4 0  9994
2 18153  82.5013 334.4454 0019779 326.2036  33.7918 14.85644725 72232
COSMOS 1867             
1 18187U 87060A   26084.50941403 -.00000029  00000+0  26593-4 0  9992
2 18187  65.0090 262.4001 0014748 279.6151  80.3266 14.31505370 22207
SL-14 R/B               
1 18749U 88001B   26084.50225032  .00000492  00000+0  54041-4 0  9997
2 18749  82.5163 180.4926 0018044 181.3307 178.7865 14.85544892 44376
COSMOS 1933             
1 18958U 88020A   26084.41212480  .00004294  00000+0  20897-3 0  9998
2 18958  82.5120 235.3520 0005072 134.7278 225.4369 15.18128691 52614
SL-3 R/B                
1 19046U 88032B   26084.59798517  .00004787  00000+0  22308-3 0  9995
2 19046  97.5214  67.7969 0025964 174.4060 185.7470 15.20080524 54527
SL-16 R/B               
1 19120U 88039B   26084.55254160  .00000076  00000+0  58883-4 0  9997
2 19120  71.0161  35.0036 0023529 311.5493  48.3614 14.19618060960631
COSMOS 1953             
1 19210U 88050A   26084.59764769  .00006344  00000+0  22524-3 0  9991
2 19210  82.5080 142.2460 0012514  72.9317 287.3293 15.28771621 40210
